{
    "links": {
        "self": "http://www.neowsapp.com/rest/v1/neo/3681053?api_key=iIulBulltgU6a56xZRHN4H3l9WmuAYTsLGpBGhQ2"
    },
    "id": "3681053",
    "neo_reference_id": "3681053",
    "name": "(2014 OR392)",
    "designation": "2014 OR392",
    "nasa_jpl_url": "http://ssd.jpl.nasa.gov/sbdb.cgi?sstr=3681053",
    "absolute_magnitude_h": 25.8,
    "estimated_diameter": {
        "kilometers": {
            "estimated_diameter_min": 0.0183888672,
            "estimated_diameter_max": 0.0411187571
        },
        "meters": {
            "estimated_diameter_min": 18.388867207,
            "estimated_diameter_max": 41.1187571041
        },
        "miles": {
            "estimated_diameter_min": 0.0114263088,
            "estimated_diameter_max": 0.0255500032
        },
        "feet": {
            "estimated_diameter_min": 60.3309310875,
            "estimated_diameter_max": 134.9040630575
        }
    },
    "is_potentially_hazardous_asteroid": false,
    "close_approach_data": [
        {
            "close_approach_date": "2014-07-29",
            "close_approach_date_full": "2014-Jul-29 06:18",
            "epoch_date_close_approach": 1406614680000,
            "relative_velocity": {
                "kilometers_per_second": "8.5767092029",
                "kilometers_per_hour": "30876.1531304682",
                "miles_per_hour": "19185.2408159845"
            },
            "miss_distance": {
                "astronomical": "0.0275674723",
                "lunar": "10.7237467247",
                "kilometers": "4124035.137364001",
                "miles": "2562556.6070291738"
            },
            "orbiting_body": "Earth"
        }
    ],
    "orbital_data": {
        "orbit_id": "4",
        "orbit_determination_date": "2019-07-11 06:02:35",
        "first_observation_date": "2014-07-31",
        "last_observation_date": "2014-08-01",
        "data_arc_in_days": 1,
        "observations_used": 17,
        "orbit_uncertainty": "8",
        "minimum_orbit_intersection": ".0164324",
        "jupiter_tisserand_invariant": "3.388",
        "epoch_osculation": "2456870.5",
        "eccentricity": ".5496651998685901",
        "semi_major_axis": "2.271426438618779",
        "inclination": "6.134272712424245",
        "ascending_node_longitude": "128.6174160493689",
        "orbital_period": "1250.392734859137",
        "perihelion_distance": "1.022902371248588",
        "perihelion_argument": "194.4722728166196",
        "aphelion_distance": "3.51995050598897",
        "perihelion_time": "2456881.685010824017",
        "mean_anomaly": "356.7797286529342",
        "mean_motion": ".2879095423091657",
        "equinox": "J2000",
        "orbit_class": {
            "orbit_class_type": "AMO",
            "orbit_class_description": "Near-Earth asteroid orbits similar to that of 1221 Amor",
            "orbit_class_range": "1.017 AU < q (perihelion) < 1.3 AU"
        }
    },
    "is_sentry_object": false
}